[{"OBJECT_NAME":"ONEWEB-0288","OBJECT_ID":"2021-075D","EPOCH":"2026-02-18T22:15:26.348256","MEAN_MOTION":13.12443361,"ECCENTRICITY":0.0001938,"INCLINATION":87.8977,"RA_OF_ASC_NODE":14.1247,"ARG_OF_PERICENTER":81.5197,"MEAN_ANOMALY":278.6151,"EPHEMERIS_TYPE":0,"CLASSIFICATION_TYPE":"U","NORAD_CAT_ID":49078,"ELEMENT_SET_NO":999,"REV_AT_EPOCH":21967,"BSTAR":-0.0011113,"MEAN_MOTION_DOT":-3.87e-6,"MEAN_MOTION_DDOT":0},{"OBJECT_NAME":"ONEWEB-0289","OBJECT_ID":"2021-075E","EPOCH":"2026-02-18T23:20:42.557856","MEAN_MOTION":13.17649805,"ECCENTRICITY":0.00021761,"INCLINATION":87.9119,"RA_OF_ASC_NODE":29.3576,"ARG_OF_PERICENTER":93.9559,"MEAN_ANOMALY":266.1821,"EPHEMERIS_TYPE":0,"CLASSIFICATION_TYPE":"U","NORAD_CAT_ID":49079,"ELEMENT_SET_NO":999,"REV_AT_EPOCH":21863,"BSTAR":-8.1766737e-5,"MEAN_MOTION_DOT":-1.9e-7,"MEAN_MOTION_DDOT":0},{"OBJECT_NAME":"ONEWEB-0290","OBJECT_ID":"2021-075F","EPOCH":"2026-02-18T22:42:00.635616","MEAN_MOTION":13.17647047,"ECCENTRICITY":0.00021014,"INCLINATION":87.9125,"RA_OF_ASC_NODE":29.3306,"ARG_OF_PERICENTER":100.8715,"MEAN_ANOMALY":259.2653,"EPHEMERIS_TYPE":0,"CLASSIFICATION_TYPE":"U","NORAD_CAT_ID":49080,"ELEMENT_SET_NO":999,"REV_AT_EPOCH":21804,"BSTAR":7.9771358e-5,"MEAN_MOTION_DOT":4.4e-7,"MEAN_MOTION_DDOT":0},{"OBJECT_NAME":"ONEWEB-0291","OBJECT_ID":"2021-075G","EPOCH":"2026-02-19T00:09:30.614112","MEAN_MOTION":13.17648344,"ECCENTRICITY":0.00022624,"INCLINATION":87.9129,"RA_OF_ASC_NODE":29.3264,"ARG_OF_PERICENTER":82.4643,"MEAN_ANOMALY":277.6745,"EPHEMERIS_TYPE":0,"CLASSIFICATION_TYPE":"U","NORAD_CAT_ID":49081,"ELEMENT_SET_NO":999,"REV_AT_EPOCH":21804,"BSTAR":-0.00010768756,"MEAN_MOTION_DOT":-2.9e-7,"MEAN_MOTION_DDOT":0},{"OBJECT_NAME":"ONEWEB-0293","OBJECT_ID":"2021-075H","EPOCH":"2026-02-18T22:56:36.895776","MEAN_MOTION":13.17648241,"ECCENTRICITY":0.00020179,"INCLINATION":87.9114,"RA_OF_ASC_NODE":29.3497,"ARG_OF_PERICENTER":87.4355,"MEAN_ANOMALY":272.7007,"EPHEMERIS_TYPE":0,"CLASSIFICATION_TYPE":"U","NORAD_CAT_ID":49082,"ELEMENT_SET_NO":999,"REV_AT_EPOCH":21806,"BSTAR":-4.8098597e-5,"MEAN_MOTION_DOT":-6.0e-8,"MEAN_MOTION_DDOT":0},{"OBJECT_NAME":"ONEWEB-0294","OBJECT_ID":"2021-075J","EPOCH":"2026-02-18T22:25:11.326368","MEAN_MOTION":13.12443753,"ECCENTRICITY":0.0002047,"INCLINATION":87.8976,"RA_OF_ASC_NODE":14.126,"ARG_OF_PERICENTER":89.8934,"MEAN_ANOMALY":270.2429,"EPHEMERIS_TYPE":0,"CLASSIFICATION_TYPE":"U","NORAD_CAT_ID":49083,"ELEMENT_SET_NO":999,"REV_AT_EPOCH":21906,"BSTAR":-0.00071477,"MEAN_MOTION_DOT":-2.44e-6,"MEAN_MOTION_DDOT":0},{"OBJECT_NAME":"ONEWEB-0295","OBJECT_ID":"2021-075K","EPOCH":"2026-02-18T22:55:24.819168","MEAN_MOTION":13.17648959,"ECCENTRICITY":0.00022213,"INCLINATION":87.9117,"RA_OF_ASC_NODE":29.3544,"ARG_OF_PERICENTER":77.8242,"MEAN_ANOMALY":282.3138,"EPHEMERIS_TYPE":0,"CLASSIFICATION_TYPE":"U","NORAD_CAT_ID":49084,"ELEMENT_SET_NO":999,"REV_AT_EPOCH":21802,"BSTAR":-5.2139189e-5,"MEAN_MOTION_DOT":-7.0e-8,"MEAN_MOTION_DDOT":0},{"OBJECT_NAME":"ONEWEB-0296","OBJECT_ID":"2021-075L","EPOCH":"2026-02-18T21:55:55.242048","MEAN_MOTION":13.12442474,"ECCENTRICITY":0.00022219,"INCLINATION":87.8978,"RA_OF_ASC_NODE":14.133,"ARG_OF_PERICENTER":79.9246,"MEAN_ANOMALY":280.2133,"EPHEMERIS_TYPE":0,"CLASSIFICATION_TYPE":"U","NORAD_CAT_ID":49085,"ELEMENT_SET_NO":999,"REV_AT_EPOCH":21906,"BSTAR":-0.00076621796,"MEAN_MOTION_DOT":-2.63e-6,"MEAN_MOTION_DDOT":0},{"OBJECT_NAME":"ONEWEB-0297","OBJECT_ID":"2021-075M","EPOCH":"2026-02-18T22:39:50.461920","MEAN_MOTION":13.12444001,"ECCENTRICITY":0.00019812,"INCLINATION":87.8965,"RA_OF_ASC_NODE":14.1542,"ARG_OF_PERICENTER":77.7423,"MEAN_ANOMALY":282.3927,"EPHEMERIS_TYPE":0,"CLASSIFICATION_TYPE":"U","NORAD_CAT_ID":49086,"ELEMENT_SET_NO":999,"REV_AT_EPOCH":21967,"BSTAR":0.00043802951,"MEAN_MOTION_DOT":1.7e-6,"MEAN_MOTION_DDOT":0},{"OBJECT_NAME":"ONEWEB-0298","OBJECT_ID":"2021-075N","EPOCH":"2026-02-18T23:01:40.845792","MEAN_MOTION":13.17650262,"ECCENTRICITY":0.00018292,"INCLINATION":87.9116,"RA_OF_ASC_NODE":29.3503,"ARG_OF_PERICENTER":80.7392,"MEAN_ANOMALY":279.3946,"EPHEMERIS_TYPE":0,"CLASSIFICATION_TYPE":"U","NORAD_CAT_ID":49087,"ELEMENT_SET_NO":999,"REV_AT_EPOCH":21805,"BSTAR":-2.0015808e-5,"MEAN_MOTION_DOT":5.0e-8,"MEAN_MOTION_DDOT":0},{"OBJECT_NAME":"ONEWEB-0299","OBJECT_ID":"2021-075P","EPOCH":"2026-02-18T23:03:53.770464","MEAN_MOTION":13.17649154,"ECCENTRICITY":0.00020121,"INCLINATION":87.9126,"RA_OF_ASC_NODE":29.3185,"ARG_OF_PERICENTER":78.705,"MEAN_ANOMALY":281.4308,"EPHEMERIS_TYPE":0,"CLASSIFICATION_TYPE":"U","NORAD_CAT_ID":49088,"ELEMENT_SET_NO":999,"REV_AT_EPOCH":21803,"BSTAR":-1.7613357e-5,"MEAN_MOTION_DOT":6.0e-8,"MEAN_MOTION_DDOT":0},{"OBJECT_NAME":"ONEWEB-0300","OBJECT_ID":"2021-075Q","EPOCH":"2026-02-18T22:28:51.813984","MEAN_MOTION":13.12442793,"ECCENTRICITY":0.0001585,"INCLINATION":87.8977,"RA_OF_ASC_NODE":14.1217,"ARG_OF_PERICENTER":71.8903,"MEAN_ANOMALY":288.2398,"EPHEMERIS_TYPE":0,"CLASSIFICATION_TYPE":"U","NORAD_CAT_ID":49089,"ELEMENT_SET_NO":999,"REV_AT_EPOCH":21969,"BSTAR":-0.00082564,"MEAN_MOTION_DOT":-2.84e-6,"MEAN_MOTION_DDOT":0},{"OBJECT_NAME":"ONEWEB-0301","OBJECT_ID":"2021-075R","EPOCH":"2026-02-18T22:05:40.557120","MEAN_MOTION":13.12442806,"ECCENTRICITY":0.00015891,"INCLINATION":87.8977,"RA_OF_ASC_NODE":14.1259,"ARG_OF_PERICENTER":72.8545,"MEAN_ANOMALY":287.2757,"EPHEMERIS_TYPE":0,"CLASSIFICATION_TYPE":"U","NORAD_CAT_ID":49090,"ELEMENT_SET_NO":999,"REV_AT_EPOCH":21905,"BSTAR":-0.00095147912,"MEAN_MOTION_DOT":-3.3e-6,"MEAN_MOTION_DDOT":0},{"OBJECT_NAME":"ONEWEB-0302","OBJECT_ID":"2021-075S","EPOCH":"2026-02-19T06:55:04.173600","MEAN_MOTION":13.12440102,"ECCENTRICITY":0.0002137,"INCLINATION":87.8979,"RA_OF_ASC_NODE":14.0606,"ARG_OF_PERICENTER":85.7568,"MEAN_ANOMALY":274.3805,"EPHEMERIS_TYPE":0,"CLASSIFICATION_TYPE":"U","NORAD_CAT_ID":49091,"ELEMENT_SET_NO":999,"REV_AT_EPOCH":21908,"BSTAR":6.732586e-6,"MEAN_MOTION_DOT":1.5e-7,"MEAN_MOTION_DDOT":0},{"OBJECT_NAME":"ONEWEB-0304","OBJECT_ID":"2021-075T","EPOCH":"2026-02-18T22:27:27.085824","MEAN_MOTION":13.17648124,"ECCENTRICITY":0.0001995,"INCLINATION":87.913,"RA_OF_ASC_NODE":29.3535,"ARG_OF_PERICENTER":80.8529,"MEAN_ANOMALY":279.2828,"EPHEMERIS_TYPE":0,"CLASSIFICATION_TYPE":"U","NORAD_CAT_ID":49092,"ELEMENT_SET_NO":999,"REV_AT_EPOCH":21800,"BSTAR":3.5229e-6,"MEAN_MOTION_DOT":1.4e-7,"MEAN_MOTION_DDOT":0},{"OBJECT_NAME":"ONEWEB-0305","OBJECT_ID":"2021-075U","EPOCH":"2026-02-19T00:07:04.806336","MEAN_MOTION":13.17647131,"ECCENTRICITY":0.000216,"INCLINATION":87.9129,"RA_OF_ASC_NODE":29.3185,"ARG_OF_PERICENTER":76.6953,"MEAN_ANOMALY":283.4419,"EPHEMERIS_TYPE":0,"CLASSIFICATION_TYPE":"U","NORAD_CAT_ID":49093,"ELEMENT_SET_NO":999,"REV_AT_EPOCH":21804,"BSTAR":-0.00021042174,"MEAN_MOTION_DOT":-6.9e-7,"MEAN_MOTION_DDOT":0},{"OBJECT_NAME":"ONEWEB-0308","OBJECT_ID":"2021-075V","EPOCH":"2026-02-19T06:45:18.753120","MEAN_MOTION":13.12442508,"ECCENTRICITY":0.00018492,"INCLINATION":87.8978,"RA_OF_ASC_NODE":14.0555,"ARG_OF_PERICENTER":80.593,"MEAN_ANOMALY":279.5408,"EPHEMERIS_TYPE":0,"CLASSIFICATION_TYPE":"U","NORAD_CAT_ID":49094,"ELEMENT_SET_NO":999,"REV_AT_EPOCH":21909,"BSTAR":0.00070071625,"MEAN_MOTION_DOT":2.65e-6,"MEAN_MOTION_DDOT":0},{"OBJECT_NAME":"ONEWEB-0309","OBJECT_ID":"2021-075W","EPOCH":"2026-02-19T00:11:56.955840","MEAN_MOTION":13.17648234,"ECCENTRICITY":0.00022254,"INCLINATION":87.9127,"RA_OF_ASC_NODE":29.3326,"ARG_OF_PERICENTER":91.0527,"MEAN_ANOMALY":269.0859,"EPHEMERIS_TYPE":0,"CLASSIFICATION_TYPE":"U","NORAD_CAT_ID":49095,"ELEMENT_SET_NO":999,"REV_AT_EPOCH":21801,"BSTAR":-0.00012193349,"MEAN_MOTION_DOT":-3.4e-7,"MEAN_MOTION_DDOT":0},{"OBJECT_NAME":"ONEWEB-0310","OBJECT_ID":"2021-075X","EPOCH":"2026-02-18T21:58:21.983808","MEAN_MOTION":13.12442361,"ECCENTRICITY":0.00018626,"INCLINATION":87.8969,"RA_OF_ASC_NODE":14.1603,"ARG_OF_PERICENTER":83.848,"MEAN_ANOMALY":276.2861,"EPHEMERIS_TYPE":0,"CLASSIFICATION_TYPE":"U","NORAD_CAT_ID":49096,"ELEMENT_SET_NO":999,"REV_AT_EPOCH":21967,"BSTAR":-0.00086629692,"MEAN_MOTION_DOT":-2.99e-6,"MEAN_MOTION_DDOT":0},{"OBJECT_NAME":"ONEWEB-0311","OBJECT_ID":"2021-075Y","EPOCH":"2026-02-18T22:32:19.108320","MEAN_MOTION":13.17648492,"ECCENTRICITY":0.0002042,"INCLINATION":87.9128,"RA_OF_ASC_NODE":29.3411,"ARG_OF_PERICENTER":74.6452,"MEAN_ANOMALY":285.4905,"EPHEMERIS_TYPE":0,"CLASSIFICATION_TYPE":"U","NORAD_CAT_ID":49097,"ELEMENT_SET_NO":999,"REV_AT_EPOCH":21805,"BSTAR":8.1858e-5,"MEAN_MOTION_DOT":4.5e-7,"MEAN_MOTION_DDOT":0},{"OBJECT_NAME":"ONEWEB-0312","OBJECT_ID":"2021-075Z","EPOCH":"2026-02-18T22:54:11.061216","MEAN_MOTION":13.17648517,"ECCENTRICITY":0.00022547,"INCLINATION":87.9116,"RA_OF_ASC_NODE":29.3577,"ARG_OF_PERICENTER":82.3367,"MEAN_ANOMALY":277.802,"EPHEMERIS_TYPE":0,"CLASSIFICATION_TYPE":"U","NORAD_CAT_ID":49098,"ELEMENT_SET_NO":999,"REV_AT_EPOCH":21803,"BSTAR":-9.604342e-6,"MEAN_MOTION_DOT":9.0e-8,"MEAN_MOTION_DDOT":0},{"OBJECT_NAME":"ONEWEB-0313","OBJECT_ID":"2021-075AA","EPOCH":"2026-02-18T23:01:16.748832","MEAN_MOTION":13.17648544,"ECCENTRICITY":0.00019833,"INCLINATION":87.9116,"RA_OF_ASC_NODE":29.3632,"ARG_OF_PERICENTER":80.5256,"MEAN_ANOMALY":279.61,"EPHEMERIS_TYPE":0,"CLASSIFICATION_TYPE":"U","NORAD_CAT_ID":49099,"ELEMENT_SET_NO":999,"REV_AT_EPOCH":21802,"BSTAR":2.8014143e-5,"MEAN_MOTION_DOT":2.4e-7,"MEAN_MOTION_DDOT":0},{"OBJECT_NAME":"ONEWEB-0314","OBJECT_ID":"2021-075AB","EPOCH":"2026-02-19T00:02:13.428384","MEAN_MOTION":13.1764812,"ECCENTRICITY":0.00022586,"INCLINATION":87.9128,"RA_OF_ASC_NODE":29.3159,"ARG_OF_PERICENTER":80.9751,"MEAN_ANOMALY":279.1636,"EPHEMERIS_TYPE":0,"CLASSIFICATION_TYPE":"U","NORAD_CAT_ID":49100,"ELEMENT_SET_NO":999,"REV_AT_EPOCH":21800,"BSTAR":-0.00020296693,"MEAN_MOTION_DOT":-6.6e-7,"MEAN_MOTION_DDOT":0}]
